$$SOE
2461288.500000000, A.D. 2026-Sep-05 00:00:00.0000, 2.090714555317091E+08, -2.076079000943953E+08, 4.436384450646894E+07,
2461295.500000000, A.D. 2026-Sep-12 00:00:00.0000, 2.152807642361257E+08, -1.975668570462498E+08, 4.812634827232766E+07,
2461302.500000000, A.D. 2026-Sep-19 00:00:00.0000, 2.210876542943512E+08, -1.871566058454581E+08, 5.179887143010582E+07,
2461309.500000000, A.D. 2026-Sep-26 00:00:00.0000, 2.264733431180636E+08, -1.763899006398419E+08, 5.537269153673014E+07,
2461316.500000000, A.D. 2026-Oct-03 00:00:00.0000, 2.314190587158609E+08, -1.652806299508387E+08, 5.883891878934062E+07,
2461323.500000000, A.D. 2026-Oct-10 00:00:00.0000, 2.359060885351894E+08, -1.538438792771950E+08, 6.218850423923020E+07,
2461330.500000000, A.D. 2026-Oct-17 00:00:00.0000, 2.399158358742156E+08, -1.420959948965684E+08, 6.541225057979649E+07,
2461337.500000000, A.D. 2026-Oct-24 00:00:00.0000, 2.434298845679522E+08, -1.300546483072118E+08, 6.850082584772684E+07,
2461344.500000000, A.D. 2026-Oct-31 00:00:00.0000, 2.464300727269695E+08, -1.177389006547823E+08, 7.144478038204552E+07,
2461351.500000000, A.D. 2026-Nov-07 00:00:00.0000, 2.488985765389051E+08, -1.051692661869950E+08, 7.423456738911018E+07,
2461358.500000000, A.D. 2026-Nov-14 00:00:00.0000, 2.508180049888849E+08, -9.236777279162291E+07, 7.686056756005543E+07,
2461365.500000000, A.D. 2026-Nov-21 00:00:00.0000, 2.521715043010100E+08, -7.935801770381729E+07, 7.931311837339035E+07,
2461372.500000000, A.D. 2026-Nov-28 00:00:00.0000, 2.529428716287566E+08, -6.616521996512178E+07, 8.158254833727083E+07,
2461379.500000000, A.D. 2026-Dec-05 00:00:00.0000, 2.531166820174421E+08, -5.281626864289039E+07, 8.365921617776386E+07,
2461386.500000000, A.D. 2026-Dec-12 00:00:00.0000, 2.526784290581131E+08, -3.933976182594790E+07, 8.553355558396284E+07,
2461393.500000000, A.D. 2026-Dec-19 00:00:00.0000, 2.516146774032158E+08, -2.576603429730385E+07, 8.719612602008727E+07,
2461400.500000000, A.D. 2026-Dec-26 00:00:00.0000, 2.499132268044301E+08, -1.212717244370478E+07, 8.863766982415742E+07,
2461407.500000000, A.D. 2027-Jan-02 00:00:00.0000, 2.475632874384655E+08, 1.542985916552883E+06, 8.984917574667162E+07,
2461414.500000000, A.D. 2027-Jan-09 00:00:00.0000, 2.445556657546936E+08, 1.520886948930593E+07, 9.082194900535952E+07,
2461421.500000000, A.D. 2027-Jan-16 00:00:00.0000, 2.408829595619557E+08, 2.883321206120054E+07, 9.154768780060422E+07,
2461428.500000000, A.D. 2027-Jan-23 00:00:00.0000, 2.365397605878281E+08, 4.237711449024867E+07, 9.201856606255645E+07,
2461435.500000000, A.D. 2027-Jan-30 00:00:00.0000, 2.315228623369224E+08, 5.580013293309465E+07, 9.222732198656698E+07,
2461442.500000000, A.D. 2027-Feb-06 00:00:00.0000, 2.258314707142521E+08, 6.906039636799574E+07, 9.216735168411435E+07,
2461449.500000000, A.D. 2027-Feb-13 00:00:00.0000, 2.194674133569526E+08, 8.211475710551412E+07, 9.183280715397839E+07,
2461456.500000000, A.D. 2027-Feb-20 00:00:00.0000, 2.124353410924794E+08, 9.491897558838135E+07, 9.121869751712275E+07,
2461463.500000000, A.D. 2027-Feb-27 00:00:00.0000, 2.047429181207011E+08, 1.074279377788461E+08, 9.032099162697269E+07,
2461470.500000000, A.D. 2027-Mar-06 00:00:00.0000, 1.964009985782254E+08, 1.195959078143304E+08, 8.913672010582872E+07,
2461477.500000000, A.D. 2027-Mar-13 00:00:00.0000, 1.874237820719702E+08, 1.313768178331449E+08, 8.766407498993887E+07,
2461484.500000000, A.D. 2027-Mar-20 00:00:00.0000, 1.778289409552289E+08, 1.427245929015383E+08, 8.590250462529895E+07,
2461491.500000000, A.D. 2027-Mar-27 00:00:00.0000, 1.676377133595190E+08, 1.535935080178258E+08, 8.385280113786039E+07,
2461498.500000000, A.D. 2027-Apr-03 00:00:00.0000, 1.568749561444908E+08, 1.639385733188595E+08, 8.151717769188756E+07,
2461505.500000000, A.D. 2027-Apr-10 00:00:00.0000, 1.455691522160280E+08, 1.737159422757674E+08, 7.889933271165584E+07,
2461512.500000000, A.D. 2027-Apr-17 00:00:00.0000, 1.337523673613910E+08, 1.828833362302269E+08, 7.600449829839888E+07,
2461519.500000000, A.D. 2027-Apr-24 00:00:00.0000, 1.214601528628460E+08, 1.914004772692139E+08, 7.283947025083081E+07,
2461526.500000000, A.D. 2027-May-01 00:00:00.0000, 1.087313917333114E+08, 1.992295204056112E+08, 6.941261741042069E+07,
2461533.500000000, A.D. 2027-May-08 00:00:00.0000, 9.560808806443679E+07, 2.063354759096119E+08, 6.573386857833599E+07,
2461540.500000000, A.D. 2027-May-15 00:00:00.0000, 8.213509902476837E+07, 2.126866123322551E+08, 6.181467601420325E+07,
2461547.500000000, A.D. 2027-May-22 00:00:00.0000, 6.835981090004127E+07, 2.182548271256149E+08, 5.766795492468040E+07,
2461554.500000000, A.D. 2027-May-29 00:00:00.0000, 5.433176746285041E+07, 2.230159733515123E+08, 5.330799880649509E+07,
2461561.500000000, A.D. 2027-Jun-05 00:00:00.0000, 4.010225841926077E+07, 2.269501364598107E+08, 4.875037192375952E+07,
2461568.500000000, A.D. 2027-Jun-12 00:00:00.0000, 2.572387442067487E+07, 2.300418537343663E+08, 4.401178102419508E+07,
2461575.500000000, A.D. 2027-Jun-19 00:00:00.0000, 1.125003812243720E+07, 2.322802694101780E+08, 3.910992888978399E+07,
2461582.500000000, A.D. 2027-Jun-26 00:00:00.0000, -3.265477701219568E+06, 2.336592212255648E+08, 3.406335296659276E+07,
2461589.500000000, A.D. 2027-Jul-03 00:00:00.0000, -1.776903368761251E+07, 2.341772567236028E+08, 2.889125285499601E+07,
2461596.500000000, A.D. 2027-Jul-10 00:00:00.0000, -3.220759792378868E+07, 2.338375799652477E+08, 2.361331077379256E+07,
2461603.500000000, A.D. 2027-Jul-17 00:00:00.0000, -4.652919990070237E+07, 2.326479315359218E+08, 1.824950923281923E+07,
2461610.500000000, A.D. 2027-Jul-24 00:00:00.0000, -6.068335465306350E+07, 2.306204067337760E+08, 1.281995006251112E+07,
2461617.500000000, A.D. 2027-Jul-31 00:00:00.0000, -7.462144847802748E+07, 2.277712188061960E+08, 7.344678714722380E+06,
2461624.500000000, A.D. 2027-Aug-07 00:00:00.0000, -8.829707995393693E+07, 2.241204163502800E+08, 1.843517528566688E+06,
2461631.500000000, A.D. 2027-Aug-14 00:00:00.0000, -1.016663539536822E+08, 2.196915636125463E+08, -3.664088744135574E+06,
2461638.500000000, A.D. 2027-Aug-21 00:00:00.0000, -1.146881252381983E+08, 2.145113898702008E+08, -9.159212997116104E+06,
2461645.500000000, A.D. 2027-Aug-28 00:00:00.0000, -1.273241871715036E+08, 2.086094186644354E+08, -1.462356981981699E+07,
2461652.500000000, A.D. 2027-Sep-04 00:00:00.0000, -1.395394073623675E+08, 2.020175886197724E+08, -2.003962209718028E+07,
2461659.500000000, A.D. 2027-Sep-11 00:00:00.0000, -1.513018136654193E+08, 1.947698737005606E+08, -2.539066957723917E+07,
2461666.500000000, A.D. 2027-Sep-18 00:00:00.0000, -1.625826336549705E+08, 1.869019098157613E+08, -3.066091951325420E+07,
2461673.500000000, A.D. 2027-Sep-25 00:00:00.0000, -1.733562915187846E+08, 1.784506341915298E+08, -3.583553993326187E+07,
2461680.500000000, A.D. 2027-Oct-02 00:00:00.0000, -1.836003671055937E+08, 1.694539428837198E+08, -4.090069647030216E+07,
2461687.500000000, A.D. 2027-Oct-09 00:00:00.0000, -1.932955222765178E+08, 1.599503705893504E+08, -4.584357399626301E+07,
2461694.500000000, A.D. 2027-Oct-16 00:00:00.0000, -2.024253997965100E+08, 1.499787957177565E+08, -5.065238453065006E+07,
2461701.500000000, A.D. 2027-Oct-23 00:00:00.0000, -2.109764997311433E+08, 1.395781726631310E+08, -5.531636304458853E+07,
2461708.500000000, A.D. 2027-Oct-30 00:00:00.0000, -2.189380379645076E+08, 1.287872928794739E+08, -5.982575279959604E+07,
2461715.500000000, A.D. 2027-Nov-06 00:00:00.0000, -2.263017926405830E+08, 1.176445760513577E+08, -6.417178167410034E+07,
2461722.500000000, A.D. 2027-Nov-13 00:00:00.0000, -2.330619447228037E+08, 1.061878887707007E+08, -6.834663106825671E+07,
2461729.500000000, A.D. 2027-Nov-20 00:00:00.0000, -2.392149134821001E+08, 9.445438748490420E+07, -7.234339934023622E+07,
2461736.500000000, A.D. 2027-Nov-27 00:00:00.0000, -2.447591884828655E+08, 8.248038720411368E+07, -7.615606105089733E+07,
2461743.500000000, A.D. 2027-Dec-04 00:00:00.0000, -2.496951627958268E+08, 7.030125509911463E+07, -7.977942299574646E+07,
2461750.500000000, A.D. 2027-Dec-11 00:00:00.0000, -2.540249702227546E+08, 5.795132607357278E+07, -8.320907816001293E+07,
2461757.500000000, A.D. 2027-Dec-18 00:00:00.0000, -2.577523280296980E+08, 4.546383792561027E+07, -8.644135860393791E+07,
2461764.500000000, A.D. 2027-Dec-25 00:00:00.0000, -2.608823863967544E+08, 3.287088401856819E+07, -8.947328809783407E+07,
2461771.500000000, A.D. 2028-Jan-01 00:00:00.0000, -2.634215855435186E+08, 2.020338142771540E+07, -9.230253517983094E+07,
$$EOE